[{"OBJECT_NAME":"STARLINK-5620","OBJECT_ID":"2023-014Z","EPOCH":"2026-03-09T22:50:04.007328","MEAN_MOTION":14.9832514,"ECCENTRICITY":0.00042346,"INCLINATION":69.9981,"RA_OF_ASC_NODE":83.7072,"ARG_OF_PERICENTER":270.6473,"MEAN_ANOMALY":89.4201,"EPHEMERIS_TYPE":0,"CLASSIFICATION_TYPE":"U","NORAD_CAT_ID":55414,"ELEMENT_SET_NO":999,"REV_AT_EPOCH":17160,"BSTAR":2.1797609e-5,"MEAN_MOTION_DOT":1.67e-6,"MEAN_MOTION_DDOT":0},{"OBJECT_NAME":"UNKNOWN","OBJECT_ID":"","EPOCH":"2026-03-09T15:39:14.183136","MEAN_MOTION":14.19674453,"ECCENTRICITY":0.0427747,"INCLINATION":65.8963,"RA_OF_ASC_NODE":273.9524,"ARG_OF_PERICENTER":312.8567,"MEAN_ANOMALY":43.7312,"EPHEMERIS_TYPE":0,"CLASSIFICATION_TYPE":"U","NORAD_CAT_ID":87293,"ELEMENT_SET_NO":999,"REV_AT_EPOCH":62632,"BSTAR":0.00094722,"MEAN_MOTION_DOT":4.963e-5,"MEAN_MOTION_DDOT":0}]
